[{"OBJECT_NAME":"UHETSAT","OBJECT_ID":"2023-185E","EPOCH":"2026-03-09T22:39:26.455680","MEAN_MOTION":15.29797662,"ECCENTRICITY":0.00118435,"INCLINATION":97.3584,"RA_OF_ASC_NODE":137.3576,"ARG_OF_PERICENTER":307.7346,"MEAN_ANOMALY":52.2821,"EPHEMERIS_TYPE":0,"CLASSIFICATION_TYPE":"U","NORAD_CAT_ID":58466,"ELEMENT_SET_NO":999,"REV_AT_EPOCH":12611,"BSTAR":0.00030513019,"MEAN_MOTION_DOT":8.749e-5,"MEAN_MOTION_DDOT":0},{"OBJECT_NAME":"STARLINK-35116","OBJECT_ID":"2025-235W","EPOCH":"2026-03-09T21:22:06.443040","MEAN_MOTION":15.30205087,"ECCENTRICITY":6.066e-5,"INCLINATION":53.1593,"RA_OF_ASC_NODE":244.2307,"ARG_OF_PERICENTER":46.7534,"MEAN_ANOMALY":313.3517,"EPHEMERIS_TYPE":0,"CLASSIFICATION_TYPE":"U","NORAD_CAT_ID":66078,"ELEMENT_SET_NO":999,"REV_AT_EPOCH":2295,"BSTAR":0.0012607089,"MEAN_MOTION_DOT":0.00037172,"MEAN_MOTION_DDOT":0}]
